OBJECT_NAME,OBJECT_ID,EPOCH,MEAN_MOTION,ECCENTRICITY,INCLINATION,RA_OF_ASC_NODE,ARG_OF_PERICENTER,MEAN_ANOMALY,EPHEMERIS_TYPE,CLASSIFICATION_TYPE,NORAD_CAT_ID,ELEMENT_SET_NO,REV_AT_EPOCH,BSTAR,MEAN_MOTION_DOT,MEAN_MOTION_DDOT
TEVEL2-8,2025-052AF,2026-07-20T23:20:13.910208,15.32511630,.00072948,97.3893,97.1254,41.5783,318.6012,0,U,63239,999,7519,.38126763E-3,.11906E-3,0
FORESAIL-1 PRIME,2025-276DS,2026-07-20T22:12:44.748288,15.18968100,.00024115,97.4183,274.5823,30.6259,329.5116,0,U,66778,999,3552,.1479288E-3,.3025E-4,0
